STARLINK-36971          
1 68165U 26049Z   26087.83335647 -.00076687  00000+0 -40227-3 0  9992
2 68165  97.2842 108.0576 0001720  96.1348 284.8943 15.80861346  3696
STARLINK-36273          
1 68166U 26049AA  26087.83335647 -.00008504  00000+0 -56234-4 0  9992
2 68166  97.2846 108.0461 0000995  93.5763 254.8165 15.75178034  3703
STARLINK-36969          
1 68167U 26050A   26087.71798612  .00222893  00000+0  11001-2 0  9995
2 68167  53.1595 186.4795 0001069  74.2990 285.8150 15.80948334  3484
STARLINK-36984          
1 68168U 26050B   26087.78045090  .00283594  00000+0  13865-2 0  9993
2 68168  53.1595 186.1574 0000846  59.0312 301.0794 15.80985767  3495
STARLINK-37077          
1 68169U 26050C   26087.77969323  .00141790  00000+0  70824-3 0  9997
2 68169  53.1595 186.1519 0000860 101.7515 258.3604 15.80932468  3495
STARLINK-37003          
1 68170U 26050D   26087.77894389  .00191208  00000+0  94782-3 0  9996
2 68170  53.1596 186.1471 0001034 124.0023 236.1099 15.80945554  3493
STARLINK-37034          
1 68171U 26050E   26087.77819328  .00162411  00000+0  80862-3 0  9995
2 68171  53.1595 186.1420 0000732  96.2006 263.9101 15.80936884  3490
STARLINK-37031          
1 68172U 26050F   26087.77745492  .00194951  00000+0  96631-3 0  9991
2 68172  53.1592 186.1360 0001163  64.4936 295.6207 15.80936087  3493
STARLINK-37076          
1 68173U 26050G   26087.77670187  .00297008  00000+0  14497-2 0  9996
2 68173  53.1593 186.1319 0000948  97.0573 263.0558 15.80984803  3495
STARLINK-37078          
1 68174U 26050H   26087.77593854  .00077846  00000+0  39336-3 0  9998
2 68174  53.1593 186.1259 0001077  44.4895 315.6214 15.80930358  3495
STARLINK-36886          
1 68175U 26050J   26087.77520708  .00091546  00000+0  46201-3 0  9999
2 68175  53.1597 186.1222 0001519  81.5817 278.5378 15.80893409  3490
STARLINK-36905          
1 68176U 26050K   26087.77444819  .00253961  00000+0  12466-2 0  9994
2 68176  53.1592 186.1169 0000674  79.3009 280.8089 15.80980249  3499
STARLINK-36668          
1 68177U 26050L   26087.77370156  .00256273  00000+0  12584-2 0  9997
2 68177  53.1593 186.1114 0000521  62.2511 297.8565 15.80965646  3492
STARLINK-36677          
1 68178U 26050M   26087.77295211  .00233415  00000+0  11500-2 0  9996
2 68178  53.1593 186.1061 0000838  77.0978 283.0139 15.80956584  3491
STARLINK-37052          
1 68179U 26050N   26087.77220510  .00296298  00000+0  14478-2 0  9992
2 68179  53.1589 186.1014 0001251  63.0000 297.1150 15.80963629  3493
STARLINK-37035          
1 68180U 26050P   26087.77144854  .00208443  00000+0  10302-2 0  9997
2 68180  53.1593 186.0967 0000520  76.9954 283.1127 15.80958887  3494
STARLINK-37032          
1 68181U 26050Q   26087.70748177  .00220229  00000+0  10870-2 0  9995
2 68181  53.1590 186.4087 0000986  63.0826 297.0297 15.80954541  3484
STARLINK-37082          
1 68182U 26050R   26087.70671598  .00100162  00000+0  50314-3 0  9999
2 68182  53.1590 186.4033 0000652  70.3787 289.7307 15.80959331  3485
STARLINK-37102          
1 68183U 26050S   26087.64276686  .00139478  00000+0  69767-3 0  9996
2 68183  53.1591 186.7151 0001561  82.7068 277.4132 15.80909254  3478
STARLINK-36964          
1 68184U 26050T   26087.70523232  .00229545  00000+0  11318-2 0  9999
2 68184  53.1587 186.3933 0000537  71.5167 288.5914 15.80949898  3486
STARLINK-37061          
1 68185U 26050U   26087.76770054  .00291929  00000+0  14265-2 0  9991
2 68185  53.1592 186.0716 0000938  83.7704 276.3426 15.80974119  3494
STARLINK-37079          
1 68186U 26050V   26087.76694860  .00594735  00000+0  27839-2 0  9994
2 68186  53.1590 186.0669 0001159  55.0847 305.0285 15.81107962  3494
STARLINK-37006          
1 68187U 26050W   26087.76620111  .00266947  00000+0  13094-2 0  9992
2 68187  53.1591 186.0619 0000858  67.5599 292.5515 15.80959564  3496
STARLINK-36340          
1 68188U 26050X   26087.76545381  .00166381  00000+0  82847-3 0  9992
2 68188  53.1594 186.0561 0001345  59.4551 300.6604 15.80922503  3398
STARLINK-36305          
1 68189U 26050Y   26087.76470246  .00122437  00000+0  61436-3 0  9995
2 68189  53.1593 186.0515 0000752  81.9032 278.2076 15.80899544  3393
STARLINK-37071          
1 68190U 26050Z   26087.76320344  .00340507  00000+0  16541-2 0  9996
2 68190  53.1594 186.0418 0001005 110.6623 249.4508 15.80970352  3494
STARLINK-37091          
1 68191U 26050AA  26087.76245191  .00129789  00000+0  65014-3 0  9990
2 68191  53.1592 186.0358 0000855 105.0384 255.0734 15.80910849  3499
STARLINK-37098          
1 68192U 26050AB  26087.76168543 -.00044753  00000+0 -22417-3 0  9995
2 68192  53.1595 186.0309 0001118 102.1529 257.9619 15.80891459  3499
STARLINK-37090          
1 68193U 26050AC  26087.76018752  .00139268  00000+0  69545-3 0  9999
2 68193  53.1595 186.0203 0001638  44.8743 315.2412 15.80946372  3494
STARLINK-37093          
1 68194U 26050AD  26087.76395197  .00165873  00000+0  82581-3 0  9997
2 68194  53.1593 186.0454 0001324  61.1441 298.9715 15.80927632  3491
STARLINK-37058          
1 68195U 26050AE  26087.76094898  .00116296  00000+0  58374-3 0  9990
2 68195  53.1593 186.0252 0000731  82.0300 278.0805 15.80914218  1937
YAOGAN-50 02            
1 68196U 26051A   26087.85742253  .00000266  00000+0  72029-4 0  9990
2 68196 141.9886 299.6593 0000790 258.7577 101.3054 13.83266678  1868
CZ-6A R/B               
1 68197U 26051B   26087.84552987  .00000993  00000+0  12212-3 0  9997
2 68197 142.0319 306.5718 0186647 188.7429 171.0014 14.56370621  1958
2026-052A               
1 68198U 26052A   26085.62264051  .00000448  00000+0  31529-4 0  9993
2 68198  97.5376 161.7059 0012977 225.7685 134.2480 15.09879016  1583
YUXING-3 06             
1 68199U 26052B   26087.74203840  .00006012  00000+0  37238-3 0  9993
2 68199  97.5376 163.7933 0012032 219.6196 140.4155 15.10090245  1903
2026-052C               
1 68200U 26052C   26087.87345780  .00005270  00000+0  32582-3 0  9992
2 68200  97.5374 163.9257 0011716 221.7175 138.3162 15.10216796  1910
2026-052D               
1 68201U 26052D   26087.87203471  .00008380  00000+0  51282-3 0  9996
2 68201  97.5374 163.9238 0010880 218.2607 141.7852 15.10422163  1924
2026-052E               
1 68202U 26052E   26087.87201431  .00007873  00000+0  48205-3 0  9998
2 68202  97.5373 163.9269 0010737 222.2744 137.7658 15.10421573  1929
2026-052F               
1 68203U 26052F   26087.86989951  .00008173  00000+0  49683-3 0  9993
2 68203  97.5368 163.9325 0010037 213.9216 146.1373 15.10676701  1924
2026-052G               
1 68204U 26052G   26087.86948994  .00008262  00000+0  50162-3 0  9999
2 68204  97.5378 163.9287 0009604 216.7759 143.2813 15.10725079  1924
KZ-11 R/B               
1 68205U 26052H   26087.83630832  .00029203  19441-5  43697-3 0  9994
2 68205  97.3417 163.1672 0546096 331.9667  25.3084 14.67232006  1863
2026-052J               
1 68206U 26052J   26087.83305873  .00079704  27971-5  11651-2 0  9991
2 68206  97.3418 163.1706 0543302 332.0174  25.2765 14.68040775  1861
STARLINK-36986          
1 68207U 26053A   26087.83335647  .00004481  00000+0  24128-4 0  9998
2 68207  97.2838 323.0178 0001450  92.5289 169.9965 15.80808782  3095
STARLINK-37009          
1 68208U 26053B   26087.83335647 -.00143379  00000+0 -75805-3 0  9998
2 68208  97.2838 323.0186 0001883  86.6222 180.1744 15.80873794  3091
STARLINK-36948          
1 68209U 26053C   26087.83335647  .00009587  00000+0  50765-4 0  9998
2 68209  97.2837 323.0215 0001920  96.9417 174.1407 15.80801308  2984
STARLINK-37119          
1 68210U 26053D   26087.83335647 -.00055377  00000+0 -29000-3 0  9997
2 68210  97.2840 323.0224 0001437 106.2682 169.0788 15.80830796  3093
STARLINK-37120          
1 68211U 26053E   26087.83335647 -.00111142  00000+0 -58527-3 0  9997
2 68211  97.2838 323.0239 0001424  93.5861 186.0223 15.80876450  3078
STARLINK-37117          
1 68212U 26053F   26087.83335647 -.00000423  00000+0 -14710-5 0  9995
2 68212  97.2839 323.0263 0001431  86.8228 197.0889 15.80805539  3099
STARLINK-37116          
1 68213U 26053G   26087.83335647 -.00103408  00000+0 -54418-3 0  9990
2 68213  97.2837 323.0278 0001596 104.4845 183.6737 15.80868935  3090
STARLINK-35854          
1 68214U 26053H   26087.83335647 -.00085582  00000+0 -44968-3 0  9992
2 68214  97.2836 323.0296 0001228 102.0581 190.3723 15.80853016  2850
STARLINK-36272          
1 68215U 26053J   26087.83335647 -.00149319  00000+0 -78947-3 0  9996
2 68215  97.2835 323.0311 0001430  91.2251 205.4770 15.80890626  2988
STARLINK-37014          
1 68216U 26053K   26087.83335647 -.00131800  00000+0 -69579-3 0  9994
2 68216  97.2837 323.0328 0001395 101.1567 199.8247 15.80877375  3094
STARLINK-37011          
1 68217U 26053L   26087.83335647 -.00060918  00000+0 -31912-3 0  9996
2 68217  97.2838 323.0353 0001520  99.8680 205.3960 15.80842166  3098
STARLINK-37108          
1 68218U 26053M   26087.83335647 -.00007714  00000+0 -39564-4 0  9994
2 68218  97.2839 323.0368 0001473  97.7519 211.7822 15.80818136  3099
STARLINK-37106          
1 68219U 26053N   26087.83335647  .00095711  00000+0  49525-3 0  9994
2 68219  97.2831 323.0389 0001245  97.1382 216.6714 15.80803076  3095
STARLINK-37030          
1 68220U 26053P   26087.83335647  .00082581  00000+0  42800-3 0  9996
2 68220  97.2828 323.0421 0001464  91.3962 230.9589 15.80805390  3093
STARLINK-37012          
1 68221U 26053Q   26087.83335647 -.00125393  00000+0 -66164-3 0  9997
2 68221  97.2829 323.0397 0001412  92.9641 225.1166 15.80871072  3098
STARLINK-37110          
1 68222U 26053R   26087.83335647 -.00007482  00000+0 -38307-4 0  9995
2 68222  97.2829 323.0436 0001360  98.5543 228.0531 15.80841378  3092
STARLINK-37025          
1 68223U 26053S   26087.83335647  .00040020  00000+0  20875-3 0  9999
2 68223  97.2831 323.0448 0001251  94.4267 236.4798 15.80812009  3093
